{"fetched_at":"2026-03-29T16:36:15Z","count":15609,"tles":[{"name":"STARLINK-35827","line1":"1 66365U 25254T   26087.87426945  .00032691  00000+0  11098-2 0  9993","line2":"2 66365  53.1594 143.2887 0001558  77.3753 282.7422 15.30235477 21916","category":"Starlink"}]}