{
  "norad_id": 66365,
  "name": "STARLINK-35827",
  "history": [
    {
      "epoch": "2026-03-28T20:58:56.880480",
      "apogee_km": 476.1768792877929,
      "perigee_km": 474.0414077894666,
      "latitude_deg": -50.25545858288368,
      "longitude_deg": -179.57013279991224,
      "semi_major_axis_km": 6853.246143538629,
      "eccentricity": 0.0001558,
      "inclination_deg": 53.1594,
      "raan_deg": 143.2887,
      "arg_perigee_deg": 77.3753,
      "mean_anomaly_deg": 282.7422,
      "mean_motion_rev_day": 15.30235477
    }
  ]
}